{
"type": "FeatureCollection",
"name": "training_features_complete",
"crs": { "type": "name", "properties": { "name": "urn:ogc:def:crs:OGC:1.3:CRS84" } },
"features": [
{ "type": "Feature", "properties": { "lat": 28.394017, "lon": 95.923317, "date": null, "source": "New Indulin - field verified (Mihu et al. 2026)", "label": 1, "elevation": 657, "slope": 50.60215, "aspect": 194.61578, "ndvi": 0.45079494, "rainfall_3day": 21.149998843669891, "soil_moisture": 0.39894869923591614, "dist_to_road": 35.256259972125797, "dist_to_river": 316.57053802972479 }, "geometry": { "type": "Point", "coordinates": [ 95.923317, 28.394017 ] } },
{ "type": "Feature", "properties": { "lat": 28.861117, "lon": 95.981983, "date": null, "source": "Battis - field verified (Mihu et al. 2026)", "label": 1, "elevation": 1531, "slope": 21.484167, "aspect": 109.11018, "ndvi": 0.39898649, "rainfall_3day": 3.8899999856948853, "soil_moisture": 0.49466867248217267, "dist_to_road": 5.3023187754113463, "dist_to_river": 49.356983832069858 }, "geometry": { "type": "Point", "coordinates": [ 95.981983, 28.861117 ] } },
{ "type": "Feature", "properties": { "lat": 28.637933, "lon": 95.8561, "date": null, "source": "New Indulin - field verified (Mihu et al. 2026)", "label": 1, "elevation": 897, "slope": 39.971684, "aspect": 117.46181, "ndvi": 0.32289934, "rainfall_3day": 6.9600000381469727, "soil_moisture": 0.42917456229527789, "dist_to_road": 26.949712451980492, "dist_to_river": 283.95008630487746 }, "geometry": { "type": "Point", "coordinates": [ 95.8561, 28.637933 ] } },
{ "type": "Feature", "properties": { "lat": 28.413844, "lon": 95.897625, "date": null, "source": "Unnamed site - field verified (Mihu et al. 2026)", "label": 1, "elevation": 617, "slope": 55.26017, "aspect": 234.93979, "ndvi": 0.15547638, "rainfall_3day": 5.3199999332427979, "soil_moisture": 0.39894869923591614, "dist_to_road": 49.745983528186876, "dist_to_river": 207.7937038219994 }, "geometry": { "type": "Point", "coordinates": [ 95.897625, 28.413844 ] } },
{ "type": "Feature", "properties": { "lat": 28.638217, "lon": 95.856283, "date": null, "source": "Anini - field verified (Mihu et al. 2026)", "label": 1, "elevation": 897, "slope": 46.903847, "aspect": 182.60141, "ndvi": 0.32289934, "rainfall_3day": 6.9600000381469727, "soil_moisture": 0.42917456229527789, "dist_to_road": 34.621763038399983, "dist_to_river": 294.16085680830435 }, "geometry": { "type": "Point", "coordinates": [ 95.856283, 28.638217 ] } },
{ "type": "Feature", "properties": { "lat": 28.871613732372456, "lon": 95.797318554309157, "date": "", "source": "random_background", "label": 0, "elevation": 1858, "slope": 31.220724, "aspect": 322.15118, "ndvi": 0.89804173, "rainfall_3day": 5.3699994087219238, "soil_moisture": 0.55174799760182702, "dist_to_road": 1874.6402494759288, "dist_to_river": 391.34422492627073 }, "geometry": { "type": "Point", "coordinates": [ 95.797318554309157, 28.871613732372456 ] } },
{ "type": "Feature", "properties": { "lat": 28.617959381580825, "lon": 95.962653712300167, "date": "", "source": "random_background", "label": 0, "elevation": 1875, "slope": 34.862366, "aspect": 32.266243, "ndvi": 0.58407986, "rainfall_3day": 3.6049998998641968, "soil_moisture": 0.41524759928385419, "dist_to_road": 1780.2096405730065, "dist_to_river": 2128.7479602216627 }, "geometry": { "type": "Point", "coordinates": [ 95.962653712300181, 28.617959381580821 ] } },
{ "type": "Feature", "properties": { "lat": 28.309351369550807, "lon": 95.677558179712634, "date": "", "source": "random_background", "label": 0, "elevation": 500, "slope": 7.444097, "aspect": 278.09906, "ndvi": 0.35856667, "rainfall_3day": 14.220000505447388, "soil_moisture": 0.3881400426228841, "dist_to_road": 5771.3677110414192, "dist_to_river": 3477.6496357637443 }, "geometry": { "type": "Point", "coordinates": [ 95.677558179712634, 28.3093513695508 ] } },
{ "type": "Feature", "properties": { "lat": 28.814658634778315, "lon": 95.643144120567754, "date": "", "source": "random_background", "label": 0, "elevation": 2936, "slope": 21.277206, "aspect": 127.91605, "ndvi": 0.62078553, "rainfall_3day": 6.1150000095367432, "soil_moisture": 0.51597165067990625, "dist_to_road": 14714.270571304336, "dist_to_river": 3034.538395412982 }, "geometry": { "type": "Point", "coordinates": [ 95.643144120567754, 28.814658634778308 ] } },
{ "type": "Feature", "properties": { "lat": 28.697012920507763, "lon": 95.901823837487541, "date": "", "source": "random_background", "label": 0, "elevation": 1859, "slope": 31.568689, "aspect": 112.92093, "ndvi": 0.58867067, "rainfall_3day": 3.6049998998641968, "soil_moisture": 0.46583281954129535, "dist_to_road": 3070.3572631126153, "dist_to_river": 798.17333280173693 }, "geometry": { "type": "Point", "coordinates": [ 95.901823837487555, 28.69701292050776 ] } },
{ "type": "Feature", "properties": { "lat": 28.888684115746379, "lon": 95.626915743553965, "date": "", "source": "random_background", "label": 0, "elevation": 3050, "slope": 33.812325, "aspect": 171.67107, "ndvi": -0.028277908, "rainfall_3day": 6.1150000095367432, "soil_moisture": 0.55647309621175134, "dist_to_road": 17096.533524644958, "dist_to_river": 1959.1423239338199 }, "geometry": { "type": "Point", "coordinates": [ 95.626915743553965, 28.888684115746379 ] } },
{ "type": "Feature", "properties": { "lat": 28.342602109408684, "lon": 96.003203522159239, "date": "", "source": "random_background", "label": 0, "elevation": 1629, "slope": 24.328625, "aspect": 296.60681, "ndvi": 0.65399241, "rainfall_3day": 9.2749999761581421, "soil_moisture": 0.43198232849438983, "dist_to_road": 3894.1202137776281, "dist_to_river": 1712.8839521206451 }, "geometry": { "type": "Point", "coordinates": [ 96.003203522159239, 28.342602109408677 ] } },
{ "type": "Feature", "properties": { "lat": 28.328575033960924, "lon": 95.690431358897953, "date": "", "source": "random_background", "label": 0, "elevation": 1133, "slope": 34.945335, "aspect": 288.4281, "ndvi": 0.13081929, "rainfall_3day": 14.220000505447388, "soil_moisture": 0.3881400426228841, "dist_to_road": 8248.3483025146143, "dist_to_river": 4537.3249382987269 }, "geometry": { "type": "Point", "coordinates": [ 95.690431358897953, 28.328575033960924 ] } },
{ "type": "Feature", "properties": { "lat": 28.569822881543601, "lon": 95.755461707397458, "date": "", "source": "random_background", "label": 0, "elevation": 2300, "slope": 14.313141, "aspect": 49.508446, "ndvi": 0.70019674, "rainfall_3day": 12.554999947547913, "soil_moisture": 0.40114984909693402, "dist_to_road": 3769.4877898844165, "dist_to_river": 2560.895338424069 }, "geometry": { "type": "Point", "coordinates": [ 95.755461707397458, 28.569822881543598 ] } },
{ "type": "Feature", "properties": { "lat": 28.402725347181704, "lon": 95.812481542062798, "date": "", "source": "random_background", "label": 0, "elevation": 991, "slope": 48.418442, "aspect": 221.29604, "ndvi": 0.40768486, "rainfall_3day": 5.3199999332427979, "soil_moisture": 0.40035206079483032, "dist_to_road": 5370.3083216183513, "dist_to_river": 1219.3169148439686 }, "geometry": { "type": "Point", "coordinates": [ 95.812481542062798, 28.4027253471817 ] } },
{ "type": "Feature", "properties": { "lat": 28.29316620806803, "lon": 95.895943460802499, "date": "", "source": "random_background", "label": 0, "elevation": 2311, "slope": 32.289402, "aspect": 50.14312, "ndvi": 0.55608791, "rainfall_3day": 8.8899998664855957, "soil_moisture": 0.43442290027936298, "dist_to_road": 1977.4097543497819, "dist_to_river": 3491.612835655611 }, "geometry": { "type": "Point", "coordinates": [ 95.895943460802499, 28.293166208068026 ] } },
{ "type": "Feature", "properties": { "lat": 28.45745376286434, "lon": 95.746724678946038, "date": "", "source": "random_background", "label": 0, "elevation": 1679, "slope": 33.142342, "aspect": 250.2262, "ndvi": 0.53915137, "rainfall_3day": 6.8749997615814209, "soil_moisture": 0.40681383013725281, "dist_to_road": 7251.638859525784, "dist_to_river": 5368.0473664850779 }, "geometry": { "type": "Point", "coordinates": [ 95.746724678946052, 28.45745376286434 ] } },
{ "type": "Feature", "properties": { "lat": 28.753244704170484, "lon": 95.833458472755638, "date": "", "source": "random_background", "label": 0, "elevation": 1773, "slope": 27.882595, "aspect": 77.950676, "ndvi": 0.84141177, "rainfall_3day": 5.5899999141693115, "soil_moisture": 0.47756378849347431, "dist_to_road": 2985.5460344886787, "dist_to_river": 118.12367352105807 }, "geometry": { "type": "Point", "coordinates": [ 95.833458472755638, 28.753244704170477 ] } },
{ "type": "Feature", "properties": { "lat": 28.563362933235769, "lon": 95.704973258440006, "date": "", "source": "random_background", "label": 0, "elevation": 1791, "slope": 24.963102, "aspect": 221.29604, "ndvi": 0.60913593, "rainfall_3day": 12.554999947547913, "soil_moisture": 0.40114984909693402, "dist_to_road": 2186.4691883138671, "dist_to_river": 1911.0037687954141 }, "geometry": { "type": "Point", "coordinates": [ 95.704973258440006, 28.563362933235769 ] } },
{ "type": "Feature", "properties": { "lat": 28.227292412017505, "lon": 95.88483823970418, "date": "", "source": "random_background", "label": 0, "elevation": 1568, "slope": 36.351837, "aspect": 98.631111, "ndvi": 0.34599081, "rainfall_3day": 8.8899998664855957, "soil_moisture": 0.43442290027936298, "dist_to_road": 1362.6708999052016, "dist_to_river": 185.5882899788252 }, "geometry": { "type": "Point", "coordinates": [ 95.88483823970418, 28.227292412017505 ] } },
{ "type": "Feature", "properties": { "lat": 28.315244739038487, "lon": 95.894473798345444, "date": "", "source": "random_background", "label": 0, "elevation": 1819, "slope": 37.790169, "aspect": 13.260826, "ndvi": 0.76700521, "rainfall_3day": 5.1549996137619019, "soil_moisture": 0.40597276389598846, "dist_to_road": 2472.5439827149389, "dist_to_river": 5592.5808979798021 }, "geometry": { "type": "Point", "coordinates": [ 95.894473798345444, 28.315244739038484 ] } },
{ "type": "Feature", "properties": { "lat": 28.873332591476544, "lon": 95.647991842756525, "date": "", "source": "random_background", "label": 0, "elevation": 3123, "slope": 21.801222, "aspect": 111.60243, "ndvi": 0.031102868, "rainfall_3day": 6.1150000095367432, "soil_moisture": 0.55647309621175134, "dist_to_road": 15129.112046208231, "dist_to_river": 1424.9273875532256 }, "geometry": { "type": "Point", "coordinates": [ 95.647991842756525, 28.873332591476544 ] } },
{ "type": "Feature", "properties": { "lat": 28.764357025092828, "lon": 96.079412129357522, "date": "", "source": "random_background", "label": 0, "elevation": 3328, "slope": 19.382612, "aspect": 254.83405, "ndvi": 0.55147058, "rainfall_3day": 2.3599998354911804, "soil_moisture": 0.55720802148183191, "dist_to_road": 10252.657909633701, "dist_to_river": 2005.0821214198247 }, "geometry": { "type": "Point", "coordinates": [ 96.079412129357536, 28.764357025092828 ] } },
{ "type": "Feature", "properties": { "lat": 28.266513041786844, "lon": 95.747792980256463, "date": "", "source": "random_background", "label": 0, "elevation": 636, "slope": 37.5509, "aspect": 159.04855, "ndvi": 0.61590952, "rainfall_3day": 9.6899995803833008, "soil_moisture": 0.4185619056224823, "dist_to_road": 6694.1094116550275, "dist_to_river": 3342.3326826642951 }, "geometry": { "type": "Point", "coordinates": [ 95.747792980256463, 28.266513041786848 ] } },
{ "type": "Feature", "properties": { "lat": 28.505913124624357, "lon": 95.936546569696233, "date": "", "source": "random_background", "label": 0, "elevation": 2454, "slope": 33.19062, "aspect": 189.96402, "ndvi": 0.35096845, "rainfall_3day": 4.3899996280670166, "soil_moisture": 0.42903803785641986, "dist_to_road": 8352.0832630946352, "dist_to_river": 9902.9585674075406 }, "geometry": { "type": "Point", "coordinates": [ 95.936546569696233, 28.505913124624357 ] } },
{ "type": "Feature", "properties": { "lat": 28.550567594600505, "lon": 95.667290264472442, "date": "", "source": "random_background", "label": 0, "elevation": 1146, "slope": 25.549456, "aspect": 164.29997, "ndvi": 0.60490197, "rainfall_3day": 22.070001125335693, "soil_moisture": 0.38382595777511597, "dist_to_road": 1762.2542381340393, "dist_to_river": 1351.6073465375648 }, "geometry": { "type": "Point", "coordinates": [ 95.667290264472442, 28.550567594600501 ] } }
]
}
