{
"type": "FeatureCollection",
"name": "training_points",
"crs": { "type": "name", "properties": { "name": "urn:ogc:def:crs:OGC:1.3:CRS84" } },
"features": [
{ "type": "Feature", "properties": { "lat": 28.394017, "lon": 95.923317, "date": "", "source": "Existing verified inventory", "label": 1 }, "geometry": { "type": "Point", "coordinates": [ 95.923317, 28.394017 ] } },
{ "type": "Feature", "properties": { "lat": 28.861117, "lon": 95.981983, "date": "", "source": "Existing verified inventory", "label": 1 }, "geometry": { "type": "Point", "coordinates": [ 95.981983, 28.861117 ] } },
{ "type": "Feature", "properties": { "lat": 28.637933, "lon": 95.8561, "date": "", "source": "Existing verified inventory", "label": 1 }, "geometry": { "type": "Point", "coordinates": [ 95.8561, 28.637933 ] } },
{ "type": "Feature", "properties": { "lat": 28.413844, "lon": 95.897625, "date": "", "source": "Existing verified inventory", "label": 1 }, "geometry": { "type": "Point", "coordinates": [ 95.897625, 28.413844 ] } },
{ "type": "Feature", "properties": { "lat": 28.638217, "lon": 95.856283, "date": "", "source": "Existing verified inventory", "label": 1 }, "geometry": { "type": "Point", "coordinates": [ 95.856283, 28.638217 ] } },
{ "type": "Feature", "properties": { "lat": 28.4659, "lon": 95.86, "date": "", "source": "NASA Global Landslide Catalog", "label": 1 }, "geometry": { "type": "Point", "coordinates": [ 95.86, 28.4659 ] } },
{ "type": "Feature", "properties": { "lat": 28.4298, "lon": 95.8776, "date": "", "source": "NASA Global Landslide Catalog", "label": 1 }, "geometry": { "type": "Point", "coordinates": [ 95.8776, 28.4298 ] } },
{ "type": "Feature", "properties": { "lat": 28.871613732372456, "lon": 95.797318554309157, "date": "", "source": "random_background", "label": 0 }, "geometry": { "type": "Point", "coordinates": [ 95.797318554309157, 28.871613732372456 ] } },
{ "type": "Feature", "properties": { "lat": 28.617959381580825, "lon": 95.962653712300167, "date": "", "source": "random_background", "label": 0 }, "geometry": { "type": "Point", "coordinates": [ 95.962653712300167, 28.617959381580825 ] } },
{ "type": "Feature", "properties": { "lat": 28.309351369550807, "lon": 95.677558179712634, "date": "", "source": "random_background", "label": 0 }, "geometry": { "type": "Point", "coordinates": [ 95.677558179712634, 28.309351369550807 ] } },
{ "type": "Feature", "properties": { "lat": 28.814658634778315, "lon": 95.643144120567754, "date": "", "source": "random_background", "label": 0 }, "geometry": { "type": "Point", "coordinates": [ 95.643144120567754, 28.814658634778315 ] } },
{ "type": "Feature", "properties": { "lat": 28.697012920507763, "lon": 95.901823837487541, "date": "", "source": "random_background", "label": 0 }, "geometry": { "type": "Point", "coordinates": [ 95.901823837487541, 28.697012920507763 ] } },
{ "type": "Feature", "properties": { "lat": 28.888684115746379, "lon": 95.626915743553965, "date": "", "source": "random_background", "label": 0 }, "geometry": { "type": "Point", "coordinates": [ 95.626915743553965, 28.888684115746379 ] } },
{ "type": "Feature", "properties": { "lat": 28.342602109408684, "lon": 96.003203522159239, "date": "", "source": "random_background", "label": 0 }, "geometry": { "type": "Point", "coordinates": [ 96.003203522159239, 28.342602109408684 ] } },
{ "type": "Feature", "properties": { "lat": 28.328575033960924, "lon": 95.690431358897953, "date": "", "source": "random_background", "label": 0 }, "geometry": { "type": "Point", "coordinates": [ 95.690431358897953, 28.328575033960924 ] } },
{ "type": "Feature", "properties": { "lat": 28.569822881543601, "lon": 95.755461707397458, "date": "", "source": "random_background", "label": 0 }, "geometry": { "type": "Point", "coordinates": [ 95.755461707397458, 28.569822881543601 ] } },
{ "type": "Feature", "properties": { "lat": 28.402725347181704, "lon": 95.812481542062798, "date": "", "source": "random_background", "label": 0 }, "geometry": { "type": "Point", "coordinates": [ 95.812481542062798, 28.402725347181704 ] } },
{ "type": "Feature", "properties": { "lat": 28.29316620806803, "lon": 95.895943460802499, "date": "", "source": "random_background", "label": 0 }, "geometry": { "type": "Point", "coordinates": [ 95.895943460802499, 28.29316620806803 ] } },
{ "type": "Feature", "properties": { "lat": 28.45745376286434, "lon": 95.746724678946038, "date": "", "source": "random_background", "label": 0 }, "geometry": { "type": "Point", "coordinates": [ 95.746724678946038, 28.45745376286434 ] } },
{ "type": "Feature", "properties": { "lat": 28.753244704170484, "lon": 95.833458472755638, "date": "", "source": "random_background", "label": 0 }, "geometry": { "type": "Point", "coordinates": [ 95.833458472755638, 28.753244704170484 ] } },
{ "type": "Feature", "properties": { "lat": 28.563362933235769, "lon": 95.704973258440006, "date": "", "source": "random_background", "label": 0 }, "geometry": { "type": "Point", "coordinates": [ 95.704973258440006, 28.563362933235769 ] } },
{ "type": "Feature", "properties": { "lat": 28.227292412017505, "lon": 95.88483823970418, "date": "", "source": "random_background", "label": 0 }, "geometry": { "type": "Point", "coordinates": [ 95.88483823970418, 28.227292412017505 ] } },
{ "type": "Feature", "properties": { "lat": 28.315244739038487, "lon": 95.894473798345444, "date": "", "source": "random_background", "label": 0 }, "geometry": { "type": "Point", "coordinates": [ 95.894473798345444, 28.315244739038487 ] } },
{ "type": "Feature", "properties": { "lat": 28.873332591476544, "lon": 95.647991842756525, "date": "", "source": "random_background", "label": 0 }, "geometry": { "type": "Point", "coordinates": [ 95.647991842756525, 28.873332591476544 ] } },
{ "type": "Feature", "properties": { "lat": 28.764357025092828, "lon": 96.079412129357522, "date": "", "source": "random_background", "label": 0 }, "geometry": { "type": "Point", "coordinates": [ 96.079412129357522, 28.764357025092828 ] } },
{ "type": "Feature", "properties": { "lat": 28.266513041786844, "lon": 95.747792980256463, "date": "", "source": "random_background", "label": 0 }, "geometry": { "type": "Point", "coordinates": [ 95.747792980256463, 28.266513041786844 ] } },
{ "type": "Feature", "properties": { "lat": 28.505913124624357, "lon": 95.936546569696233, "date": "", "source": "random_background", "label": 0 }, "geometry": { "type": "Point", "coordinates": [ 95.936546569696233, 28.505913124624357 ] } },
{ "type": "Feature", "properties": { "lat": 28.550567594600505, "lon": 95.667290264472442, "date": "", "source": "random_background", "label": 0 }, "geometry": { "type": "Point", "coordinates": [ 95.667290264472442, 28.550567594600505 ] } }
]
}
