{
"type": "FeatureCollection",
"name": "training_features",
"crs": { "type": "name", "properties": { "name": "urn:ogc:def:crs:OGC:1.3:CRS84" } },
"features": [
{ "type": "Feature", "properties": { "lat": 28.394017, "lon": 95.923317, "date": "", "source": "Existing verified inventory", "label": 1, "elevation": 657, "slope": 50.60215, "aspect": 194.61578, "ndvi": 0.45079494 }, "geometry": { "type": "Point", "coordinates": [ 95.923317, 28.394017 ] } },
{ "type": "Feature", "properties": { "lat": 28.861117, "lon": 95.981983, "date": "", "source": "Existing verified inventory", "label": 1, "elevation": 1531, "slope": 21.484167, "aspect": 109.11018, "ndvi": 0.39898649 }, "geometry": { "type": "Point", "coordinates": [ 95.981983, 28.861117 ] } },
{ "type": "Feature", "properties": { "lat": 28.637933, "lon": 95.8561, "date": "", "source": "Existing verified inventory", "label": 1, "elevation": 897, "slope": 39.971684, "aspect": 117.46181, "ndvi": 0.32289934 }, "geometry": { "type": "Point", "coordinates": [ 95.8561, 28.637933 ] } },
{ "type": "Feature", "properties": { "lat": 28.413844, "lon": 95.897625, "date": "", "source": "Existing verified inventory", "label": 1, "elevation": 617, "slope": 55.26017, "aspect": 234.93979, "ndvi": 0.15547638 }, "geometry": { "type": "Point", "coordinates": [ 95.897625, 28.413844 ] } },
{ "type": "Feature", "properties": { "lat": 28.638217, "lon": 95.856283, "date": "", "source": "Existing verified inventory", "label": 1, "elevation": 897, "slope": 46.903847, "aspect": 182.60141, "ndvi": 0.32289934 }, "geometry": { "type": "Point", "coordinates": [ 95.856283, 28.638217 ] } },
{ "type": "Feature", "properties": { "lat": 28.4659, "lon": 95.86, "date": "", "source": "NASA Global Landslide Catalog", "label": 1, "elevation": 1066, "slope": 27.399658, "aspect": 64.775986, "ndvi": 0.34825081 }, "geometry": { "type": "Point", "coordinates": [ 95.86, 28.4659 ] } },
{ "type": "Feature", "properties": { "lat": 28.4298, "lon": 95.8776, "date": "", "source": "NASA Global Landslide Catalog", "label": 1, "elevation": 519, "slope": 15.833042, "aspect": 166.81673, "ndvi": 0.54273409 }, "geometry": { "type": "Point", "coordinates": [ 95.8776, 28.4298 ] } },
{ "type": "Feature", "properties": { "lat": 28.871613732372456, "lon": 95.797318554309157, "date": "", "source": "random_background", "label": 0, "elevation": 1858, "slope": 31.220724, "aspect": 322.15118, "ndvi": 0.89804173 }, "geometry": { "type": "Point", "coordinates": [ 95.797318554309157, 28.871613732372456 ] } },
{ "type": "Feature", "properties": { "lat": 28.617959381580825, "lon": 95.962653712300167, "date": "", "source": "random_background", "label": 0, "elevation": 1875, "slope": 34.862366, "aspect": 32.266243, "ndvi": 0.58407986 }, "geometry": { "type": "Point", "coordinates": [ 95.962653712300167, 28.617959381580825 ] } },
{ "type": "Feature", "properties": { "lat": 28.309351369550807, "lon": 95.677558179712634, "date": "", "source": "random_background", "label": 0, "elevation": 500, "slope": 7.444097, "aspect": 278.09906, "ndvi": 0.35856667 }, "geometry": { "type": "Point", "coordinates": [ 95.677558179712634, 28.309351369550807 ] } },
{ "type": "Feature", "properties": { "lat": 28.814658634778315, "lon": 95.643144120567754, "date": "", "source": "random_background", "label": 0, "elevation": 2936, "slope": 21.277206, "aspect": 127.91605, "ndvi": 0.62078553 }, "geometry": { "type": "Point", "coordinates": [ 95.643144120567754, 28.814658634778315 ] } },
{ "type": "Feature", "properties": { "lat": 28.697012920507763, "lon": 95.901823837487541, "date": "", "source": "random_background", "label": 0, "elevation": 1859, "slope": 31.568689, "aspect": 112.92093, "ndvi": 0.58867067 }, "geometry": { "type": "Point", "coordinates": [ 95.901823837487541, 28.697012920507763 ] } },
{ "type": "Feature", "properties": { "lat": 28.888684115746379, "lon": 95.626915743553965, "date": "", "source": "random_background", "label": 0, "elevation": 3050, "slope": 33.812325, "aspect": 171.67107, "ndvi": -0.028277908 }, "geometry": { "type": "Point", "coordinates": [ 95.626915743553965, 28.888684115746379 ] } },
{ "type": "Feature", "properties": { "lat": 28.342602109408684, "lon": 96.003203522159239, "date": "", "source": "random_background", "label": 0, "elevation": 1629, "slope": 24.328625, "aspect": 296.60681, "ndvi": 0.65399241 }, "geometry": { "type": "Point", "coordinates": [ 96.003203522159239, 28.342602109408684 ] } },
{ "type": "Feature", "properties": { "lat": 28.328575033960924, "lon": 95.690431358897953, "date": "", "source": "random_background", "label": 0, "elevation": 1133, "slope": 34.945335, "aspect": 288.4281, "ndvi": 0.13081929 }, "geometry": { "type": "Point", "coordinates": [ 95.690431358897953, 28.328575033960924 ] } },
{ "type": "Feature", "properties": { "lat": 28.569822881543601, "lon": 95.755461707397458, "date": "", "source": "random_background", "label": 0, "elevation": 2300, "slope": 14.313141, "aspect": 49.508446, "ndvi": 0.70019674 }, "geometry": { "type": "Point", "coordinates": [ 95.755461707397458, 28.569822881543601 ] } },
{ "type": "Feature", "properties": { "lat": 28.402725347181704, "lon": 95.812481542062798, "date": "", "source": "random_background", "label": 0, "elevation": 991, "slope": 48.418442, "aspect": 221.29604, "ndvi": 0.40768486 }, "geometry": { "type": "Point", "coordinates": [ 95.812481542062798, 28.402725347181704 ] } },
{ "type": "Feature", "properties": { "lat": 28.29316620806803, "lon": 95.895943460802499, "date": "", "source": "random_background", "label": 0, "elevation": 2311, "slope": 32.289402, "aspect": 50.14312, "ndvi": 0.55608791 }, "geometry": { "type": "Point", "coordinates": [ 95.895943460802499, 28.29316620806803 ] } },
{ "type": "Feature", "properties": { "lat": 28.45745376286434, "lon": 95.746724678946038, "date": "", "source": "random_background", "label": 0, "elevation": 1679, "slope": 33.142342, "aspect": 250.2262, "ndvi": 0.53915137 }, "geometry": { "type": "Point", "coordinates": [ 95.746724678946038, 28.45745376286434 ] } },
{ "type": "Feature", "properties": { "lat": 28.753244704170484, "lon": 95.833458472755638, "date": "", "source": "random_background", "label": 0, "elevation": 1773, "slope": 27.882595, "aspect": 77.950676, "ndvi": 0.84141177 }, "geometry": { "type": "Point", "coordinates": [ 95.833458472755638, 28.753244704170484 ] } },
{ "type": "Feature", "properties": { "lat": 28.563362933235769, "lon": 95.704973258440006, "date": "", "source": "random_background", "label": 0, "elevation": 1791, "slope": 24.963102, "aspect": 221.29604, "ndvi": 0.60913593 }, "geometry": { "type": "Point", "coordinates": [ 95.704973258440006, 28.563362933235769 ] } },
{ "type": "Feature", "properties": { "lat": 28.227292412017505, "lon": 95.88483823970418, "date": "", "source": "random_background", "label": 0, "elevation": 1568, "slope": 36.351837, "aspect": 98.631111, "ndvi": 0.34599081 }, "geometry": { "type": "Point", "coordinates": [ 95.88483823970418, 28.227292412017505 ] } },
{ "type": "Feature", "properties": { "lat": 28.315244739038487, "lon": 95.894473798345444, "date": "", "source": "random_background", "label": 0, "elevation": 1819, "slope": 37.790169, "aspect": 13.260826, "ndvi": 0.76700521 }, "geometry": { "type": "Point", "coordinates": [ 95.894473798345444, 28.315244739038487 ] } },
{ "type": "Feature", "properties": { "lat": 28.873332591476544, "lon": 95.647991842756525, "date": "", "source": "random_background", "label": 0, "elevation": 3123, "slope": 21.801222, "aspect": 111.60243, "ndvi": 0.031102868 }, "geometry": { "type": "Point", "coordinates": [ 95.647991842756525, 28.873332591476544 ] } },
{ "type": "Feature", "properties": { "lat": 28.764357025092828, "lon": 96.079412129357522, "date": "", "source": "random_background", "label": 0, "elevation": 3328, "slope": 19.382612, "aspect": 254.83405, "ndvi": 0.55147058 }, "geometry": { "type": "Point", "coordinates": [ 96.079412129357522, 28.764357025092828 ] } },
{ "type": "Feature", "properties": { "lat": 28.266513041786844, "lon": 95.747792980256463, "date": "", "source": "random_background", "label": 0, "elevation": 636, "slope": 37.5509, "aspect": 159.04855, "ndvi": 0.61590952 }, "geometry": { "type": "Point", "coordinates": [ 95.747792980256463, 28.266513041786844 ] } },
{ "type": "Feature", "properties": { "lat": 28.505913124624357, "lon": 95.936546569696233, "date": "", "source": "random_background", "label": 0, "elevation": 2454, "slope": 33.19062, "aspect": 189.96402, "ndvi": 0.35096845 }, "geometry": { "type": "Point", "coordinates": [ 95.936546569696233, 28.505913124624357 ] } },
{ "type": "Feature", "properties": { "lat": 28.550567594600505, "lon": 95.667290264472442, "date": "", "source": "random_background", "label": 0, "elevation": 1146, "slope": 25.549456, "aspect": 164.29997, "ndvi": 0.60490197 }, "geometry": { "type": "Point", "coordinates": [ 95.667290264472442, 28.550567594600505 ] } }
]
}
